ONEWEB-0427             
1 50499U 21132AG  25361.94686110  .00000038  00000+0  63990-4 0  9999
2 50499  87.9172   9.4354 0001758  97.2065 262.9267 13.18685936199045
ONEWEB-0429             
1 50500U 21132AH  25361.93365432  .00000023  00000+0  26282-4 0  9999
2 50500  87.9173   9.4703 0001743  85.3267 274.8064 13.18686503199018
ONEWEB-0430             
1 50501U 21132AJ  25361.77034418  .00000084  00000+0  18026-3 0  9992
2 50501  87.9180   9.4988 0001520  87.0850 273.0456 13.18687516199035
ONEWEB-0432             
1 50502U 21132AK  25361.72649961  .00000094  00000+0  20618-3 0  9994
2 50502  87.9168   9.4787 0001491 122.0458 238.0819 13.18678723198987
ONEWEB-0440             
1 50503U 21132AL  25361.79015428  .00000007  00000+0 -15451-4 0  9992
2 50503  87.9176   9.4846 0002119  83.1024 277.0349 13.18686446198989
ONEWEB-0450             
1 50504U 21132AM  25361.93545438  .00000090  00000+0  19551-3 0  9993
2 50504  87.9167   9.4767 0001669  81.8467 278.2855 13.18685162199033
ONEWEB-0410             
1 51622U 22012A   25361.60152014 -.00000006  00000+0 -48326-4 0  9993
2 51622  87.9108  39.9579 0002765 123.8991 236.2404 13.17646361191107
ONEWEB-0411             
1 51623U 22012B   25361.74313492  .00000092  00000+0  22670-3 0  9994
2 51623  87.8791  70.4441 0001190 102.8082 257.3179 13.10369961186830
